ORBCOMM FM115           
1 41186U 15081H   25051.55876245  .00001918  00000+0  41239-3 0  9990
2 41186  46.9964 234.1076 0001392 233.7902 126.2857 14.62103521490700
ORBCOMM FM108           
1 41187U 15081J   25051.40132999  .00002154  00000+0  50276-3 0  9990
2 41187  47.0046 298.3797 0002421 135.0969 225.0113 14.57811992489755
ORBCOMM FM117           
1 41188U 15081K   25051.36762848  .00002098  00000+0  49071-3 0  9996
2 41188  47.0007 297.3407 0002805 144.6995 215.4076 14.57818477489791
ORBCOMM FM116           
1 41189U 15081L   25051.28973485  .00002334  00000+0  54198-3 0  9998
2 41189  47.0023  27.5632 0002049 255.1008 104.9651 14.57782964488595
